{
    "links": {
        "self": "http://www.neowsapp.com/rest/v1/neo/3604303?api_key=iIulBulltgU6a56xZRHN4H3l9WmuAYTsLGpBGhQ2"
    },
    "id": "3604303",
    "neo_reference_id": "3604303",
    "name": "(2012 KZ3)",
    "designation": "2012 KZ3",
    "nasa_jpl_url": "http://ssd.jpl.nasa.gov/sbdb.cgi?sstr=3604303",
    "absolute_magnitude_h": 24.7,
    "estimated_diameter": {
        "kilometers": {
            "estimated_diameter_min": 0.0305179233,
            "estimated_diameter_max": 0.0682401509
        },
        "meters": {
            "estimated_diameter_min": 30.5179232594,
            "estimated_diameter_max": 68.2401509401
        },
        "miles": {
            "estimated_diameter_min": 0.0189629525,
            "estimated_diameter_max": 0.0424024508
        },
        "feet": {
            "estimated_diameter_min": 100.1244233463,
            "estimated_diameter_max": 223.8850168104
        }
    },
    "is_potentially_hazardous_asteroid": false,
    "close_approach_data": [
        {
            "close_approach_date": "2012-05-21",
            "close_approach_date_full": "2012-May-21 19:35",
            "epoch_date_close_approach": 1337628900000,
            "relative_velocity": {
                "kilometers_per_second": "5.4204134612",
                "kilometers_per_hour": "19513.4884603551",
                "miles_per_hour": "12124.9228713801"
            },
            "miss_distance": {
                "astronomical": "0.1025720388",
                "lunar": "39.9005230932",
                "kilometers": "15344558.526037356",
                "miles": "9534666.5397172728"
            },
            "orbiting_body": "Earth"
        }
    ],
    "orbital_data": {
        "orbit_id": "7",
        "orbit_determination_date": "2017-04-06 08:49:47",
        "first_observation_date": "2012-05-16",
        "last_observation_date": "2012-05-31",
        "data_arc_in_days": 15,
        "observations_used": 23,
        "orbit_uncertainty": "9",
        "minimum_orbit_intersection": ".102391",
        "jupiter_tisserand_invariant": "3.941",
        "epoch_osculation": "2456066.5",
        "eccentricity": ".3878125971959834",
        "semi_major_axis": "1.819660183728637",
        "inclination": "7.100007273867142",
        "ascending_node_longitude": "64.15960242941547",
        "orbital_period": "896.5693031359019",
        "perihelion_distance": "1.113973041862714",
        "perihelion_argument": "173.5646509735525",
        "aphelion_distance": "2.52534732559456",
        "perihelion_time": "2456065.792036608757",
        "mean_anomaly": ".2842689571860652",
        "mean_motion": ".4015305885901284",
        "equinox": "J2000",
        "orbit_class": {
            "orbit_class_type": "AMO",
            "orbit_class_description": "Near-Earth asteroid orbits similar to that of 1221 Amor",
            "orbit_class_range": "1.017 AU < q (perihelion) < 1.3 AU"
        }
    },
    "is_sentry_object": false
}